[{"OBJECT_NAME":"STARLINK-3807","OBJECT_ID":"2022-045Y","EPOCH":"2026-03-09T13:26:35.071296","MEAN_MOTION":15.0883991,"ECCENTRICITY":0.0001217,"INCLINATION":53.218,"RA_OF_ASC_NODE":199.7043,"ARG_OF_PERICENTER":75.7442,"MEAN_ANOMALY":284.3685,"EPHEMERIS_TYPE":0,"CLASSIFICATION_TYPE":"U","NORAD_CAT_ID":52353,"ELEMENT_SET_NO":999,"REV_AT_EPOCH":21576,"BSTAR":5.5941e-6,"MEAN_MOTION_DOT":-1.99e-6,"MEAN_MOTION_DDOT":0},{"OBJECT_NAME":"COSMOS 886 DEB","OBJECT_ID":"1976-126BB","EPOCH":"2026-03-09T11:56:28.762368","MEAN_MOTION":13.92875098,"ECCENTRICITY":0.05307589,"INCLINATION":65.7939,"RA_OF_ASC_NODE":106.2794,"ARG_OF_PERICENTER":113.8415,"MEAN_ANOMALY":251.9212,"EPHEMERIS_TYPE":0,"CLASSIFICATION_TYPE":"U","NORAD_CAT_ID":9961,"ELEMENT_SET_NO":999,"REV_AT_EPOCH":38673,"BSTAR":0.00065937265,"MEAN_MOTION_DOT":2.683e-5,"MEAN_MOTION_DDOT":0}]
